[{"OBJECT_NAME":"ORBCOMM FM36","OBJECT_ID":"1999-065E","EPOCH":"2026-03-03T22:27:37.668096","MEAN_MOTION":14.38965389,"ECCENTRICITY":0.0002286,"INCLINATION":45.0392,"RA_OF_ASC_NODE":299.1639,"ARG_OF_PERICENTER":156.2139,"MEAN_ANOMALY":203.8816,"EPHEMERIS_TYPE":0,"CLASSIFICATION_TYPE":"U","NORAD_CAT_ID":25984,"ELEMENT_SET_NO":999,"REV_AT_EPOCH":37182,"BSTAR":0.00053014604,"MEAN_MOTION_DOT":1.508e-5,"MEAN_MOTION_DDOT":0},{"OBJECT_NAME":"ORBCOMM FM35","OBJECT_ID":"1999-065F","EPOCH":"2026-03-03T14:56:22.823232","MEAN_MOTION":14.37857198,"ECCENTRICITY":0.0003439,"INCLINATION":45.04,"RA_OF_ASC_NODE":307.8224,"ARG_OF_PERICENTER":269.6007,"MEAN_ANOMALY":90.4447,"EPHEMERIS_TYPE":0,"CLASSIFICATION_TYPE":"U","NORAD_CAT_ID":25985,"ELEMENT_SET_NO":999,"REV_AT_EPOCH":37211,"BSTAR":0.00047139,"MEAN_MOTION_DOT":1.293e-5,"MEAN_MOTION_DDOT":0},{"OBJECT_NAME":"ORBCOMM FM34","OBJECT_ID":"1999-065G","EPOCH":"2026-03-03T22:34:07.190400","MEAN_MOTION":14.37772058,"ECCENTRICITY":0.0002984,"INCLINATION":45.0395,"RA_OF_ASC_NODE":306.8241,"ARG_OF_PERICENTER":213.2241,"MEAN_ANOMALY":146.8421,"EPHEMERIS_TYPE":0,"CLASSIFICATION_TYPE":"U","NORAD_CAT_ID":25986,"ELEMENT_SET_NO":999,"REV_AT_EPOCH":37227,"BSTAR":0.00043589172,"MEAN_MOTION_DOT":1.182e-5,"MEAN_MOTION_DDOT":0},{"OBJECT_NAME":"ORBCOMM FM38","OBJECT_ID":"2008-031A","EPOCH":"2026-03-03T15:50:24.353376","MEAN_MOTION":14.82700765,"ECCENTRICITY":0.0003834,"INCLINATION":48.4387,"RA_OF_ASC_NODE":157.4595,"ARG_OF_PERICENTER":79.4477,"MEAN_ANOMALY":280.6871,"EPHEMERIS_TYPE":0,"CLASSIFICATION_TYPE":"U","NORAD_CAT_ID":33060,"ELEMENT_SET_NO":999,"REV_AT_EPOCH":95323,"BSTAR":0.00036374062,"MEAN_MOTION_DOT":2.751e-5,"MEAN_MOTION_DDOT":0},{"OBJECT_NAME":"ORBCOMM FM41","OBJECT_ID":"2008-031B","EPOCH":"2026-03-03T16:49:25.570560","MEAN_MOTION":14.82236253,"ECCENTRICITY":0.00031464,"INCLINATION":48.4424,"RA_OF_ASC_NODE":165.9792,"ARG_OF_PERICENTER":59.3823,"MEAN_ANOMALY":93.5054,"EPHEMERIS_TYPE":0,"CLASSIFICATION_TYPE":"U","NORAD_CAT_ID":33061,"ELEMENT_SET_NO":999,"REV_AT_EPOCH":95271,"BSTAR":0.00035617956,"MEAN_MOTION_DOT":2.658e-5,"MEAN_MOTION_DDOT":0},{"OBJECT_NAME":"ORBCOMM FM29","OBJECT_ID":"2008-031C","EPOCH":"2026-03-03T17:30:36.791136","MEAN_MOTION":14.82409704,"ECCENTRICITY":0.00047619,"INCLINATION":48.4374,"RA_OF_ASC_NODE":173.2777,"ARG_OF_PERICENTER":60.9261,"MEAN_ANOMALY":92.4044,"EPHEMERIS_TYPE":0,"CLASSIFICATION_TYPE":"U","NORAD_CAT_ID":33062,"ELEMENT_SET_NO":999,"REV_AT_EPOCH":95263,"BSTAR":0.00038687243,"MEAN_MOTION_DOT":2.918e-5,"MEAN_MOTION_DDOT":0},{"OBJECT_NAME":"ORBCOMM FM39","OBJECT_ID":"2008-031D","EPOCH":"2026-03-03T19:06:57.572352","MEAN_MOTION":14.8079211,"ECCENTRICITY":0.00059354,"INCLINATION":48.4384,"RA_OF_ASC_NODE":200.2281,"ARG_OF_PERICENTER":28.5958,"MEAN_ANOMALY":331.5282,"EPHEMERIS_TYPE":0,"CLASSIFICATION_TYPE":"U","NORAD_CAT_ID":33063,"ELEMENT_SET_NO":999,"REV_AT_EPOCH":95225,"BSTAR":0.00036859171,"MEAN_MOTION_DOT":2.659e-5,"MEAN_MOTION_DDOT":0},{"OBJECT_NAME":"ORBCOMM FM37","OBJECT_ID":"2008-031E","EPOCH":"2026-03-03T18:13:58.152576","MEAN_MOTION":14.80986006,"ECCENTRICITY":0.00043921,"INCLINATION":48.438,"RA_OF_ASC_NODE":188.5232,"ARG_OF_PERICENTER":49.176,"MEAN_ANOMALY":103.6988,"EPHEMERIS_TYPE":0,"CLASSIFICATION_TYPE":"U","NORAD_CAT_ID":33064,"ELEMENT_SET_NO":999,"REV_AT_EPOCH":95250,"BSTAR":0.00036048457,"MEAN_MOTION_DOT":2.609e-5,"MEAN_MOTION_DDOT":0},{"OBJECT_NAME":"ORBCOMM FM40","OBJECT_ID":"2008-031F","EPOCH":"2026-03-03T17:15:22.099392","MEAN_MOTION":14.83620247,"ECCENTRICITY":0.00051905,"INCLINATION":48.44,"RA_OF_ASC_NODE":168.0824,"ARG_OF_PERICENTER":68.0382,"MEAN_ANOMALY":85.0756,"EPHEMERIS_TYPE":0,"CLASSIFICATION_TYPE":"U","NORAD_CAT_ID":33065,"ELEMENT_SET_NO":999,"REV_AT_EPOCH":95267,"BSTAR":0.00042240602,"MEAN_MOTION_DOT":3.306e-5,"MEAN_MOTION_DDOT":0},{"OBJECT_NAME":"VESSELSAT 1","OBJECT_ID":"2011-058C","EPOCH":"2026-03-03T22:04:41.095776","MEAN_MOTION":14.11419,"ECCENTRICITY":0.00137077,"INCLINATION":19.963,"RA_OF_ASC_NODE":322.1661,"ARG_OF_PERICENTER":163.4659,"MEAN_ANOMALY":196.6194,"EPHEMERIS_TYPE":0,"CLASSIFICATION_TYPE":"U","NORAD_CAT_ID":37840,"ELEMENT_SET_NO":999,"REV_AT_EPOCH":74304,"BSTAR":7.7305672e-5,"MEAN_MOTION_DOT":4.07e-6,"MEAN_MOTION_DDOT":0},{"OBJECT_NAME":"ORBCOMM FM109","OBJECT_ID":"2014-040A","EPOCH":"2026-03-03T11:40:01.269984","MEAN_MOTION":14.58710652,"ECCENTRICITY":0.00011525,"INCLINATION":47.002,"RA_OF_ASC_NODE":231.1854,"ARG_OF_PERICENTER":108.1548,"MEAN_ANOMALY":251.9464,"EPHEMERIS_TYPE":0,"CLASSIFICATION_TYPE":"U","NORAD_CAT_ID":40086,"ELEMENT_SET_NO":999,"REV_AT_EPOCH":61891,"BSTAR":0.00019478796,"MEAN_MOTION_DOT":7.47e-6,"MEAN_MOTION_DDOT":0},{"OBJECT_NAME":"ORBCOMM FM107","OBJECT_ID":"2014-040B","EPOCH":"2026-03-03T18:36:05.480352","MEAN_MOTION":14.58795795,"ECCENTRICITY":6.806e-5,"INCLINATION":47.0035,"RA_OF_ASC_NODE":230.6735,"ARG_OF_PERICENTER":356.3003,"MEAN_ANOMALY":3.7878,"EPHEMERIS_TYPE":0,"CLASSIFICATION_TYPE":"U","NORAD_CAT_ID":40087,"ELEMENT_SET_NO":999,"REV_AT_EPOCH":61903,"BSTAR":0.00026323922,"MEAN_MOTION_DOT":1.072e-5,"MEAN_MOTION_DDOT":0},{"OBJECT_NAME":"ORBCOMM FM106","OBJECT_ID":"2014-040C","EPOCH":"2026-03-03T06:50:46.723200","MEAN_MOTION":14.70283276,"ECCENTRICITY":0.00163417,"INCLINATION":47.0612,"RA_OF_ASC_NODE":34.0708,"ARG_OF_PERICENTER":194.6073,"MEAN_ANOMALY":165.4348,"EPHEMERIS_TYPE":0,"CLASSIFICATION_TYPE":"U","NORAD_CAT_ID":40088,"ELEMENT_SET_NO":999,"REV_AT_EPOCH":62159,"BSTAR":0.00027096974,"MEAN_MOTION_DOT":1.465e-5,"MEAN_MOTION_DDOT":0},{"OBJECT_NAME":"ORBCOMM FM111","OBJECT_ID":"2014-040D","EPOCH":"2026-03-03T17:30:32.159232","MEAN_MOTION":14.8830041,"ECCENTRICITY":0.00283438,"INCLINATION":46.9992,"RA_OF_ASC_NODE":205.9639,"ARG_OF_PERICENTER":354.9157,"MEAN_ANOMALY":5.1449,"EPHEMERIS_TYPE":0,"CLASSIFICATION_TYPE":"U","NORAD_CAT_ID":40089,"ELEMENT_SET_NO":999,"REV_AT_EPOCH":62886,"BSTAR":0.00051086201,"MEAN_MOTION_DOT":4.593e-5,"MEAN_MOTION_DDOT":0},{"OBJECT_NAME":"ORBCOMM FM104","OBJECT_ID":"2014-040E","EPOCH":"2026-03-03T21:56:05.407872","MEAN_MOTION":14.57156833,"ECCENTRICITY":0.00164691,"INCLINATION":47.0043,"RA_OF_ASC_NODE":266.7827,"ARG_OF_PERICENTER":311.1302,"MEAN_ANOMALY":48.8161,"EPHEMERIS_TYPE":0,"CLASSIFICATION_TYPE":"U","NORAD_CAT_ID":40090,"ELEMENT_SET_NO":999,"REV_AT_EPOCH":61849,"BSTAR":0.00020664114,"MEAN_MOTION_DOT":7.71e-6,"MEAN_MOTION_DDOT":0},{"OBJECT_NAME":"ORBCOMM FM103","OBJECT_ID":"2014-040F","EPOCH":"2026-03-03T21:35:10.880736","MEAN_MOTION":14.58698551,"ECCENTRICITY":0.00012262,"INCLINATION":47.0039,"RA_OF_ASC_NODE":230.8026,"ARG_OF_PERICENTER":13.9699,"MEAN_ANOMALY":346.1221,"EPHEMERIS_TYPE":0,"CLASSIFICATION_TYPE":"U","NORAD_CAT_ID":40091,"ELEMENT_SET_NO":999,"REV_AT_EPOCH":60201,"BSTAR":0.00024036061,"MEAN_MOTION_DOT":9.61e-6,"MEAN_MOTION_DDOT":0}]
